{"fetched_at":"2026-07-20T07:40:27.080Z","source":"https://celestrak.org/NORAD/elements/gp.php?GROUP=qianfan&FORMAT=JSON","constellation":"qianfan","records":[{"OBJECT_NAME":"QIANFAN-145","OBJECT_ID":"2026-108A","EPOCH":"2026-07-19T00:39:47.221632","CLASSIFICATION_TYPE":"U","MEAN_MOTION":13.58997687,"ECCENTRICITY":0.0019728,"INCLINATION":89.0103,"RA_OF_ASC_NODE":18.8684,"ARG_OF_PERICENTER":1.5086,"MEAN_ANOMALY":358.6126,"EPHEMERIS_TYPE":0,"NORAD_CAT_ID":69104,"ELEMENT_SET_NO":999,"REV_AT_EPOCH":873,"BSTAR":-2.7751,"MEAN_MOTION_DOT":-0.01895567,"MEAN_MOTION_DDOT":0},{"OBJECT_NAME":"QIANFAN-146","OBJECT_ID":"2026-108B","EPOCH":"2026-07-19T05:11:46.686912","CLASSIFICATION_TYPE":"U","MEAN_MOTION":13.78453734,"ECCENTRICITY":0.0020869,"INCLINATION":89.0105,"RA_OF_ASC_NODE":18.7365,"ARG_OF_PERICENTER":15.8328,"MEAN_ANOMALY":344.3487,"EPHEMERIS_TYPE":0,"NORAD_CAT_ID":69105,"ELEMENT_SET_NO":999,"REV_AT_EPOCH":882,"BSTAR":-2.003,"MEAN_MOTION_DOT":-0.01880361,"MEAN_MOTION_DDOT":0},{"OBJECT_NAME":"QIANFAN-147","OBJECT_ID":"2026-108C","EPOCH":"2026-07-19T20:21:19.543968","CLASSIFICATION_TYPE":"U","MEAN_MOTION":13.57849308,"ECCENTRICITY":0.0018755,"INCLINATION":89.0109,"RA_OF_ASC_NODE":18.7872,"ARG_OF_PERICENTER":9.5074,"MEAN_ANOMALY":350.6433,"EPHEMERIS_TYPE":0,"NORAD_CAT_ID":69106,"ELEMENT_SET_NO":999,"REV_AT_EPOCH":883,"BSTAR":0.0000059763,"MEAN_MOTION_DOT":1.6e-7,"MEAN_MOTION_DDOT":0},{"OBJECT_NAME":"QIANFAN-148","OBJECT_ID":"2026-108D","EPOCH":"2026-07-19T18:10:53.802624","CLASSIFICATION_TYPE":"U","MEAN_MOTION":13.55720066,"ECCENTRICITY":0.0025548,"INCLINATION":89.01,"RA_OF_ASC_NODE":18.7906,"ARG_OF_PERICENTER":17.4479,"MEAN_ANOMALY":342.7547,"EPHEMERIS_TYPE":0,"NORAD_CAT_ID":69107,"ELEMENT_SET_NO":999,"REV_AT_EPOCH":882,"BSTAR":-2.899,"MEAN_MOTION_DOT":-0.01882342,"MEAN_MOTION_DDOT":0},{"OBJECT_NAME":"QIANFAN-149","OBJECT_ID":"2026-108E","EPOCH":"2026-07-19T05:11:51.315360","CLASSIFICATION_TYPE":"U","MEAN_MOTION":13.53743688,"ECCENTRICITY":0.0016,"INCLINATION":89.0102,"RA_OF_ASC_NODE":18.8579,"ARG_OF_PERICENTER":20.2739,"MEAN_ANOMALY":339.9046,"EPHEMERIS_TYPE":0,"NORAD_CAT_ID":69108,"ELEMENT_SET_NO":999,"REV_AT_EPOCH":875,"BSTAR":-2.8504,"MEAN_MOTION_DOT":-0.01797487,"MEAN_MOTION_DDOT":0},{"OBJECT_NAME":"QIANFAN-150","OBJECT_ID":"2026-108F","EPOCH":"2026-07-18T01:03:53.810784","CLASSIFICATION_TYPE":"U","MEAN_MOTION":13.61470758,"ECCENTRICITY":0.00184134,"INCLINATION":89.0101,"RA_OF_ASC_NODE":18.9442,"ARG_OF_PERICENTER":4.5465,"MEAN_ANOMALY":355.5856,"EPHEMERIS_TYPE":0,"NORAD_CAT_ID":69109,"ELEMENT_SET_NO":999,"REV_AT_EPOCH":860,"BSTAR":-2.9050185,"MEAN_MOTION_DOT":-0.02074465,"MEAN_MOTION_DDOT":0},{"OBJECT_NAME":"QIANFAN-151","OBJECT_ID":"2026-108G","EPOCH":"2026-07-18T23:18:59.740128","CLASSIFICATION_TYPE":"U","MEAN_MOTION":13.57311349,"ECCENTRICITY":0.0019985,"INCLINATION":89.01,"RA_OF_ASC_NODE":18.8601,"ARG_OF_PERICENTER":15.9891,"MEAN_ANOMALY":344.189,"EPHEMERIS_TYPE":0,"NORAD_CAT_ID":69110,"ELEMENT_SET_NO":999,"REV_AT_EPOCH":872,"BSTAR":-2.8506,"MEAN_MOTION_DOT":-0.01895673,"MEAN_MOTION_DDOT":0},{"OBJECT_NAME":"QIANFAN-152","OBJECT_ID":"2026-108H","EPOCH":"2026-07-18T17:23:56.456736","CLASSIFICATION_TYPE":"U","MEAN_MOTION":13.56995443,"ECCENTRICITY":0.00197935,"INCLINATION":89.0105,"RA_OF_ASC_NODE":18.8794,"ARG_OF_PERICENTER":16.9396,"MEAN_ANOMALY":343.2415,"EPHEMERIS_TYPE":0,"NORAD_CAT_ID":69111,"ELEMENT_SET_NO":999,"REV_AT_EPOCH":870,"BSTAR":-3.0864069,"MEAN_MOTION_DOT":-0.02053861,"MEAN_MOTION_DDOT":0},{"OBJECT_NAME":"QIANFAN-153","OBJECT_ID":"2026-108J","EPOCH":"2026-07-19T18:04:43.048992","CLASSIFICATION_TYPE":"U","MEAN_MOTION":13.63333661,"ECCENTRICITY":0.0021586,"INCLINATION":89.0096,"RA_OF_ASC_NODE":18.77,"ARG_OF_PERICENTER":7.5746,"MEAN_ANOMALY":352.5734,"EPHEMERIS_TYPE":0,"NORAD_CAT_ID":69112,"ELEMENT_SET_NO":999,"REV_AT_EPOCH":883,"BSTAR":-2.3912,"MEAN_MOTION_DOT":-0.01760386,"MEAN_MOTION_DDOT":0},{"OBJECT_NAME":"QIANFAN-154","OBJECT_ID":"2026-108K","EPOCH":"2026-07-18T18:45:56.416608","CLASSIFICATION_TYPE":"U","MEAN_MOTION":13.53443911,"ECCENTRICITY":0.0022652,"INCLINATION":89.0106,"RA_OF_ASC_NODE":18.8881,"ARG_OF_PERICENTER":21.8623,"MEAN_ANOMALY":338.3491,"EPHEMERIS_TYPE":0,"NORAD_CAT_ID":69113,"ELEMENT_SET_NO":999,"REV_AT_EPOCH":870,"BSTAR":-3.1996,"MEAN_MOTION_DOT":-0.0201614,"MEAN_MOTION_DDOT":0},{"OBJECT_NAME":"QIANFAN-155","OBJECT_ID":"2026-108L","EPOCH":"2026-07-19T17:49:25.124160","CLASSIFICATION_TYPE":"U","MEAN_MOTION":13.58052131,"ECCENTRICITY":0.0019559,"INCLINATION":89.0105,"RA_OF_ASC_NODE":18.7742,"ARG_OF_PERICENTER":14.9907,"MEAN_ANOMALY":345.1824,"EPHEMERIS_TYPE":0,"NORAD_CAT_ID":69114,"ELEMENT_SET_NO":999,"REV_AT_EPOCH":883,"BSTAR":-2.6498,"MEAN_MOTION_DOT":-0.01790091,"MEAN_MOTION_DDOT":0},{"OBJECT_NAME":"QIANFAN-156","OBJECT_ID":"2026-108M","EPOCH":"2026-07-19T19:41:48.651072","CLASSIFICATION_TYPE":"U","MEAN_MOTION":13.63191077,"ECCENTRICITY":0.002212,"INCLINATION":89.0122,"RA_OF_ASC_NODE":18.7541,"ARG_OF_PERICENTER":12.524,"MEAN_ANOMALY":347.6463,"EPHEMERIS_TYPE":0,"NORAD_CAT_ID":69115,"ELEMENT_SET_NO":999,"REV_AT_EPOCH":886,"BSTAR":0.0000097111,"MEAN_MOTION_DOT":2e-7,"MEAN_MOTION_DDOT":0},{"OBJECT_NAME":"QIANFAN-157","OBJECT_ID":"2026-108N","EPOCH":"2026-07-18T18:23:48.350112","CLASSIFICATION_TYPE":"U","MEAN_MOTION":13.728833,"ECCENTRICITY":0.00199996,"INCLINATION":89.0103,"RA_OF_ASC_NODE":18.8113,"ARG_OF_PERICENTER":22.161,"MEAN_ANOMALY":338.0413,"EPHEMERIS_TYPE":0,"NORAD_CAT_ID":69116,"ELEMENT_SET_NO":999,"REV_AT_EPOCH":874,"BSTAR":7.05383e-7,"MEAN_MOTION_DOT":1.3e-7,"MEAN_MOTION_DDOT":0},{"OBJECT_NAME":"QIANFAN-158","OBJECT_ID":"2026-108P","EPOCH":"2026-07-19T12:42:43.888032","CLASSIFICATION_TYPE":"U","MEAN_MOTION":13.59904415,"ECCENTRICITY":0.0017421,"INCLINATION":89.0101,"RA_OF_ASC_NODE":18.7591,"ARG_OF_PERICENTER":14.1301,"MEAN_ANOMALY":346.0339,"EPHEMERIS_TYPE":0,"NORAD_CAT_ID":69117,"ELEMENT_SET_NO":999,"REV_AT_EPOCH":883,"BSTAR":-2.7055,"MEAN_MOTION_DOT":-0.01875818,"MEAN_MOTION_DDOT":0},{"OBJECT_NAME":"QIANFAN-159","OBJECT_ID":"2026-108Q","EPOCH":"2026-07-18T08:19:40.018080","CLASSIFICATION_TYPE":"U","MEAN_MOTION":13.59515039,"ECCENTRICITY":0.00179885,"INCLINATION":89.009,"RA_OF_ASC_NODE":18.8921,"ARG_OF_PERICENTER":5.0127,"MEAN_ANOMALY":355.1206,"EPHEMERIS_TYPE":0,"NORAD_CAT_ID":69118,"ELEMENT_SET_NO":999,"REV_AT_EPOCH":866,"BSTAR":-3.0133014,"MEAN_MOTION_DOT":-0.0208471,"MEAN_MOTION_DDOT":0},{"OBJECT_NAME":"QIANFAN-160","OBJECT_ID":"2026-108R","EPOCH":"2026-07-18T21:39:18.872064","CLASSIFICATION_TYPE":"U","MEAN_MOTION":13.5464404,"ECCENTRICITY":0.0022605,"INCLINATION":89.0109,"RA_OF_ASC_NODE":18.8516,"ARG_OF_PERICENTER":26.6662,"MEAN_ANOMALY":333.5649,"EPHEMERIS_TYPE":0,"NORAD_CAT_ID":69119,"ELEMENT_SET_NO":999,"REV_AT_EPOCH":873,"BSTAR":-2.9831,"MEAN_MOTION_DOT":-0.01902063,"MEAN_MOTION_DDOT":0}]}
