QIANFAN-145             
1 69104U 26108A   26200.02762988 -.01895567  00000+0 -27751+1 0  9993
2 69104  89.0103  18.8684 0019728   1.5086 358.6126 13.58997687  8737
QIANFAN-146             
1 69105U 26108B   26200.21651258 -.01880361  00000+0 -20030+1 0  9991
2 69105  89.0105  18.7365 0020869  15.8328 344.3487 13.78453734  8824
QIANFAN-147             
1 69106U 26108C   26200.84814287  .00000016  00000+0  59763-5 0  9992
2 69106  89.0109  18.7872 0018755   9.5074 350.6433 13.57849308  8836
QIANFAN-148             
1 69107U 26108D   26200.75756716 -.01882342  00000+0 -28990+1 0  9991
2 69107  89.0100  18.7906 0025548  17.4479 342.7547 13.55720066  8825
QIANFAN-149             
1 69108U 26108E   26200.21656615 -.01797487  00000+0 -28504+1 0  9996
2 69108  89.0102  18.8579 0016000  20.2739 339.9046 13.53743688  8756
QIANFAN-150             
1 69109U 26108F   26199.04437281 -.02074465  00000+0 -29050+1 0  9993
2 69109  89.0101  18.9442 0018413   4.5465 355.5856 13.61470758  8608
QIANFAN-151             
1 69110U 26108G   26199.97152477 -.01895673  00000+0 -28506+1 0  9994
2 69110  89.0100  18.8601 0019985  15.9891 344.1890 13.57311349  8729
QIANFAN-152             
1 69111U 26108H   26199.72495899 -.02053861  00000+0 -30864+1 0  9992
2 69111  89.0105  18.8794 0019793  16.9396 343.2415 13.56995443  8709
QIANFAN-153             
1 69112U 26108J   26200.75327603 -.01760386  00000+0 -23912+1 0  9998
2 69112  89.0096  18.7700 0021586   7.5746 352.5734 13.63333661  8830
QIANFAN-154             
1 69113U 26108K   26199.78190297 -.02016140  00000+0 -31996+1 0  9990
2 69113  89.0106  18.8881 0022652  21.8623 338.3491 13.53443911  8709
QIANFAN-155             
1 69114U 26108L   26200.74265190 -.01790091  00000+0 -26498+1 0  9999
2 69114  89.0105  18.7742 0019559  14.9907 345.1824 13.58052131  8839
QIANFAN-156             
1 69115U 26108M   26200.82070198  .00000020  00000+0  97111-5 0  9999
2 69115  89.0122  18.7541 0022120  12.5240 347.6463 13.63191077  8866
QIANFAN-157             
1 69116U 26108N   26199.76653183  .00000013  00000+0  70538-6 0  9998
2 69116  89.0103  18.8113 0019999  22.1610 338.0413 13.72883300  8743
QIANFAN-158             
1 69117U 26108P   26200.52967463 -.01875818  00000+0 -27055+1 0  9991
2 69117  89.0101  18.7591 0017421  14.1301 346.0339 13.59904415  8839
QIANFAN-159             
1 69118U 26108Q   26199.34699095 -.02084710  00000+0 -30133+1 0  9997
2 69118  89.0090  18.8921 0017988   5.0127 355.1206 13.59515039  8663
QIANFAN-160             
1 69119U 26108R   26199.90230176 -.01902063  00000+0 -29831+1 0  9993
2 69119  89.0109  18.8516 0022605  26.6662 333.5649 13.54644040  8739
